*******************************************************************************
JPL/HORIZONS                  1 Ceres (A801 AA)            2020-Jun-18 11:56:01
Rec #:       1 (+COV) Soln.date: 2020-May-20_11:11:55   # obs: 1030 (1995-2020)
 
IAU76/J2000 helio. ecliptic osc. elements (au, days, deg., period=Julian yrs):
 
  EPOCH=  2454061.5 ! 2006-Nov-22.00 (TDB)         Residual RMS= .24184
   EC= .07985681703215082  QR= 2.544823927206557   TP= 2454873.5774668744
   OM= 80.40822338295483   W=  73.18422155550952   IN= 10.58670363476912
   A= 2.765682531058295    MA= 185.9804488570544   ADIST= 2.986541134910033
   PER= 4.59951            N= .214289342           ANGMOM= .028516315
   DAN= 2.68599            DDN= 2.81303            L= 153.318086
   B= 10.1291284           MOID= 1.57983994        TP= 2009-Feb-11.0774668744
 
Asteroid physical parameters (km, seconds, rotational period in hours):
   GM= 62.6284             RAD= 469.7              ROTPER= 9.07417
   H= 3.4                  G= .120                 B-V= .713
                           ALBEDO= .090            STYP= C
 
ASTEROID comments: 
1: soln ref.= JPL#47, OCC=0           radar(60 delay, 0 Dop.)
2: source=ORB
*******************************************************************************
 
 
*******************************************************************************
Ephemeris / WWW_USER Thu Jun 18 11:56:01 2020 Pasadena, USA      / Horizons
*******************************************************************************
Target body name: 1 Ceres (A801 AA)               {source: JPL#47}
Center body name: Solar System Barycenter (0)     {source: DE431}
Center-site name: BODY CENTER
*******************************************************************************
Start time      : A.D. 2000-Jun-05 00:00:00.0000 TDB
Stop  time      : A.D. 2040-May-26 00:00:00.0000 TDB
Step-size       : 14400 minutes
*******************************************************************************
Center geodetic : 0.00000000,0.00000000,0.0000000 {E-lon(deg),Lat(deg),Alt(km)}
Center cylindric: 0.00000000,0.00000000,0.0000000 {E-lon(deg),Dxy(km),Dz(km)}
Center radii    : (undefined)                                                  
Small perturbers: Yes                             {source: SB431-N16}
Output units    : AU-D
Output type     : GEOMETRIC cartesian states
Output format   : 3 (position, velocity, LT, range, range-rate)
Reference frame : Ecliptic of J2000.0
*******************************************************************************
Initial IAU76/J2000 heliocentric ecliptic osculating elements (au, days, deg.):
  EPOCH=  2454061.5 ! 2006-Nov-22.00 (TDB)         Residual RMS= .24184        
   EC= .07985681703215082  QR= 2.544823927206557   TP= 2454873.5774668744      
   OM= 80.40822338295483   W=  73.18422155550952   IN= 10.58670363476912       
  Equivalent ICRF heliocentric equatorial cartesian coordinates (au, au/d):
   X= 2.732617277025615E+00  Y=-7.734822664676754E-01  Z=-9.207592896905449E-01
  VX= 3.368590810386608E-03 VY= 8.330863405401928E-03 VZ= 3.238410491551668E-03
Asteroid physical parameters (km, seconds, rotational period in hours):        
   GM= 62.6284             RAD= 469.7              ROTPER= 9.07417             
   H= 3.4                  G= .120                 B-V= .713                   
                           ALBEDO= .090            STYP= C                     
*******************************************************************************
JDTDB
   X     Y     Z
   VX    VY    VZ
   LT    RG    RR
*******************************************************************************
$$SOE
2459260.500000000 = A.D. 2021-Feb-15 00:00:00.0000 TDB 
 X = 2.863890744700119E+00 Y = 3.843644426035968E-01 Z =-5.168439227726473E-01
 VX=-1.614745888146317E-03 VY= 9.547231350428731E-03 VZ= 5.983210431264735E-04
 LT= 1.695361460401893E-02 RG= 2.935427373113495E+00 RR=-4.306283147301426E-04
2459270.500000000 = A.D. 2021-Feb-25 00:00:00.0000 TDB 
 X = 2.846075159337602E+00 Y = 4.795969680448864E-01 Z =-5.105608268079341E-01
 VX=-1.948284913491458E-03 VY= 9.497384849096404E-03 VZ= 6.582224834457593E-04
 LT= 1.692811164210656E-02 RG= 2.931011672141073E+00 RR=-4.524413688264507E-04
2459280.500000000 = A.D. 2021-Mar-07 00:00:00.0000 TDB 
 X = 2.824927312725129E+00 Y = 5.742742675699587E-01 Z =-5.036810890513208E-01
 VX=-2.281143833680539E-03 VY= 9.436176933304072E-03 VZ= 7.176391055155135E-04
 LT= 1.690136132650226E-02 RG= 2.926379998571845E+00 RR=-4.738185641897099E-04
2459290.500000000 = A.D. 2021-Mar-17 00:00:00.0000 TDB 
 X = 2.800455646005350E+00 Y = 6.682824597442928E-01 Z =-4.962098682801616E-01
 VX=-2.612993526701069E-03 VY= 9.363555132315772E-03 VZ= 7.765086177779022E-04
 LT= 1.687338957256806E-02 RG= 2.921536839511654E+00 RR=-4.947341544519922E-04
2459300.500000000 = A.D. 2021-Mar-27 00:00:00.0000 TDB 
 X = 2.772671925049527E+00 Y = 7.615071687862597E-01 Z =-4.881529514161556E-01
 VX=-2.943498130038166E-03 VY= 9.279473122574360E-03 VZ= 8.347676780037727E-04
 LT= 1.684422379017520E-02 RG= 2.916486940832586E+00 RR=-5.151621308231352E-04
2459310.500000000 = A.D. 2021-Apr-06 00:00:00.0000 TDB 
 X = 2.741591308985579E+00 Y = 8.538335883359651E-01 Z =-4.795167641671717E-01
 VX=-3.272314820690733E-03 VY= 9.183891191595000E-03 VZ= 8.923518676547867E-04
 LT= 1.681389289904219E-02 RG= 2.911235309828679E+00 RR=-5.350762188412107E-04
2459320.500000000 = A.D. 2021-Apr-16 00:00:00.0000 TDB 
 X = 2.707232420768034E+00 Y = 9.451465500124349E-01 Z =-4.703083818792992E-01
 VX=-3.599093628164155E-03 VY= 9.076776733566312E-03 VZ= 9.491956757322623E-04
 LT= 1.678242734365326E-02 RG= 2.905787217798971E+00 RR=-5.544498967626210E-04
2459330.500000000 = A.D. 2021-Apr-26 00:00:00.0000 TDB 
 X = 2.669617419446316E+00 Y = 1.035330597134716E+00 Z =-4.605355405068446E-01
 VX=-3.923477280848817E-03 VY= 8.958104787877525E-03 VZ= 1.005232490731900E-03
 LT= 1.674985910660679E-02 RG= 2.900148202358712E+00 RR=-5.732564293195041E-04
2459340.500000000 = A.D. 2021-May-06 00:00:00.0000 TDB 
 X = 2.628772073817172E+00 Y = 1.124270064060628E+00 Z =-4.502066476338066E-01
 VX=-4.245101082678540E-03 VY= 8.827858625003789E-03 VZ= 1.060394598229444E-03
 LT= 1.671622171982869E-02 RG= 2.894324069380896E+00 RR=-5.914689063928022E-04
2459350.500000000 = A.D. 2021-May-16 00:00:00.0000 TDB 
 X = 2.584725837208896E+00 Y = 1.211849161658545E+00 Z =-4.393307935039960E-01
 VX=-4.563592804891190E-03 VY= 8.686030387419804E-03 VZ= 1.114613180345322E-03
 LT= 1.668155027392044E-02 RG= 2.888320894614828E+00 RR=-6.090602628047869E-04
2459360.500000000 = A.D. 2021-May-26 00:00:00.0000 TDB 
 X = 2.537511923346696E+00 Y = 1.297952069388316E+00 Z =-4.279177620632027E-01
 VX=-4.878572582023477E-03 VY= 8.532621765016173E-03 VZ= 1.167818315014962E-03
 LT= 1.664588142726337E-02 RG= 2.882145025262477E+00 RR=-6.260032727810557E-04
2459370.500000000 = A.D. 2021-Jun-05 00:00:00.0000 TDB 
 X = 2.487167383082095E+00 Y = 1.382463034243985E+00 Z =-4.159780419671967E-01
 VX=-5.189652847572650E-03 VY= 8.367644694030577E-03 VZ= 1.219938984735137E-03
 LT= 1.660925341516021E-02 RG= 2.875803081561285E+00 RR=-6.422705576918454E-04
2459380.500000000 = A.D. 2021-Jun-15 00:00:00.0000 TDB 
 X = 2.433733181530439E+00 Y = 1.465266476858666E+00 Z =-4.035228374462911E-01
 VX=-5.496438315995722E-03 VY= 8.191122091564862E-03 VZ= 1.270903096207755E-03
 LT= 1.657170605811123E-02 RG= 2.869301958217153E+00 RR=-6.578346065471251E-04
2459390.500000000 = A.D. 2021-Jun-25 00:00:00.0000 TDB 
 X = 2.377254275161333E+00 Y = 1.546247105139798E+00 Z =-3.905640789231342E-01
 VX=-5.798526010690735E-03 VY= 8.003088626971104E-03 VZ= 1.320637510083108E-03
 LT= 1.653328076868111E-02 RG= 2.862648825593373E+00 RR=-6.726678041744195E-04
2459400.500000000 = A.D. 2021-Jul-05 00:00:00.0000 TDB 
 X = 2.317779688362673E+00 Y = 1.625290035799417E+00 Z =-3.771144332808406E-01
 VX=-6.095505341954650E-03 VY= 7.803591529420869E-03 VZ= 1.369068081229894E-03
 LT= 1.649402055652906E-02 RG= 2.855851130581595E+00 RR=-6.867424664564617E-04
2459410.500000000 = A.D. 2021-Jul-15 00:00:00.0000 TDB 
 X = 2.255362588961843E+00 Y = 1.702280924141415E+00 Z =-3.631873136744478E-01
 VX=-6.386958237826551E-03 VY= 7.592691431807407E-03 VZ= 1.416119709781811E-03
 LT= 1.645397003125234E-02 RG= 2.848916597094145E+00 RR=-7.000308801139442E-04
2459420.500000000 = A.D. 2021-Jul-25 00:00:00.0000 TDB 
 X = 2.190060362174216E+00 Y = 1.777106102462636E+00 Z =-3.487968887796807E-01
 VX=-6.672459327930111E-03 VY= 7.370463248150311E-03 VZ= 1.461716402636500E-03
 LT= 1.641317540290283E-02 RG= 2.841853226153487E+00 RR=-7.125053436743957E-04
2459430.500000000 = A.D. 2021-Aug-04 00:00:00.0000 TDB 
 X = 2.121934682404469E+00 Y = 1.849652727337930E+00 Z =-3.339580913639122E-01
 VX=-6.951576193533082E-03 VY= 7.136997071379965E-03 VZ= 1.505781348569317E-03
 LT= 1.637168447979983E-02 RG= 2.834669295513503E+00 RR=-7.241382240894023E-04
2459440.500000000 = A.D. 2021-Aug-14 00:00:00.0000 TDB 
 X = 2.051051582143434E+00 Y = 1.919808936025171E+00 Z =-3.186866260237843E-01
 VX=-7.223869695650321E-03 VY= 6.892399104195300E-03 VZ= 1.548237008893494E-03
 LT= 1.632954666255445E-02 RG= 2.827373358624857E+00 RR=-7.349020248374976E-04
2459450.500000000 = A.D. 2021-Aug-24 00:00:00.0000 TDB 
 X = 1.977481517295170E+00 Y = 1.987464012369345E+00 Z =-3.029989759654306E-01
 VX=-7.488894360664498E-03 VY= 6.636792622774392E-03 VZ= 1.589005218334515E-03
 LT= 1.628681293458564E-02 RG= 2.819974242992898E+00 RR=-7.447694414391804E-04
2459460.500000000 = A.D. 2021-Sep-03 00:00:00.0000 TDB 
 X = 1.901299428272209E+00 Y = 2.052508562397298E+00 Z =-2.869124087024507E-01
 VX=-7.746198845502360E-03 VY= 6.370318950870636E-03 VZ= 1.628007301544834E-03
 LT= 1.624353584910235E-02 RG= 2.812481047923682E+00 RR=-7.537134311390578E-04
